[
    {
        "CCSDS_OMM_VERS": "3.0",
        "COMMENT": "GENERATED VIA SPACE-TRACK.ORG API",
        "CREATION_DATE": "2025-05-04T02:26:54",
        "ORIGINATOR": "18 SPCS",
        "OBJECT_NAME": "COSMOS 2569 (GLONASS)",
        "OBJECT_ID": "2023-114A",
        "CENTER_NAME": "EARTH",
        "REF_FRAME": "TEME",
        "TIME_SYSTEM": "UTC",
        "MEAN_ELEMENT_THEORY": "SGP4",
        "EPOCH": "2025-05-03T14:12:37.384704",
        "MEAN_MOTION": "2.13103788",
        "ECCENTRICITY": "0.00125240",
        "INCLINATION": "65.0742",
        "RA_OF_ASC_NODE": "86.4574",
        "ARG_OF_PERICENTER": "296.1704",
        "MEAN_ANOMALY": "63.6786",
        "EPHEMERIS_TYPE": "0",
        "CLASSIFICATION_TYPE": "U",
        "NORAD_CAT_ID": "57517",
        "ELEMENT_SET_NO": "999",
        "REV_AT_EPOCH": "1353",
        "BSTAR": "0.00000000000000",
        "MEAN_MOTION_DOT": "0.00000027",
        "MEAN_MOTION_DDOT": "0.0000000000000",
        "SEMIMAJOR_AXIS": "25507.882",
        "PERIOD": "675.727",
        "APOAPSIS": "19161.693",
        "PERIAPSIS": "19097.801",
        "OBJECT_TYPE": "PAYLOAD",
        "RCS_SIZE": "LARGE",
        "COUNTRY_CODE": "CIS",
        "LAUNCH_DATE": "2023-08-07",
        "SITE": "PKMTR",
        "DECAY_DATE": null,
        "FILE": "4718307",
        "GP_ID": "286807639",
        "TLE_LINE0": "0 COSMOS 2569 (GLONASS)",
        "TLE_LINE1": "1 57517U 23114A   25123.59209936  .00000027  00000-0  00000-0 0  9991",
        "TLE_LINE2": "2 57517  65.0742  86.4574 0012524 296.1704  63.6786  2.13103788 13539"
    }
]